AEROCUBE 12A            
1 43556U 18046C   20338.14306045  .00004442  00000-0  16027-3 0  9994
2 43556  51.6409  14.6923 0007938 175.3979 184.7076 15.30526511133204
AEROCUBE 12B            
1 43557U 18046D   20338.36958448  .00004072  00000-0  14968-3 0  9990
2 43557  51.6426  14.6851 0008022 176.5685 183.5352 15.30140481133174
SIRIUSSAT-1             
1 43595U 98067PG  20336.93934113  .00499585  13510-3  56251-3 0  9998
2 43595  51.6154 139.4484 0008862 213.0965 150.2840 16.08623430131551
SIRIUSSAT-2             
1 43596U 98067PH  20337.50611704  .00533298  15553-3  57179-3 0  9990
2 43596  51.5972 137.2258 0003044 273.3094  86.7824 16.09455499131636
SURFSAT                 
1 43614U 18070B   20338.46038841  .00007049  00000-0  17435-3 0  9997
2 43614  93.0280 224.6098 0017077  50.8101 309.4667 15.40319465124482
CP7 (DAVE)              
1 43615U 18070C   20338.18557004  .00007109  00000-0  17703-3 0  9999
2 43615  93.0283 224.4743 0017273  51.4311 308.8488 15.40107147124430
ELFIN-B                 
1 43616U 18070D   20338.18604779  .00010381  00000-0  24284-3 0  9990
2 43616  93.0241 224.4871 0017515  51.4376 308.8446 15.41973205124506
ELFIN-A                 
1 43617U 18070E   20338.19415583  .00012020  00000-0  27821-3 0  9997
2 43617  93.0298 225.1498 0016833  49.0122 311.2586 15.42296122124517
CUBEBEL-1 (BSUSAT-1)    
1 43666U 18083E   20338.34243389  .00003084  00000-0  15169-3 0  9997
2 43666  97.4750   3.0499 0016045 128.4803 354.8913 15.18659085116241
CICERO 10               
1 43690U 18088A   20338.44711309  .00003169  00000-0  14242-3 0  9997
2 43690  85.0358 326.9462 0016795  55.7553 304.5276 15.20594812114418
IRVINE01                
1 43693U 18088D   20338.45507856  .00007977  00000-0  32775-3 0  9993
2 43693  85.0330 325.0748 0018721  36.1527 324.0977 15.23852448114570
PROXIMA I               
1 43694U 18088E   20338.44267391  .00003150  00000-0  13425-3 0  9990
2 43694  85.0300 325.0541 0020093  28.6514 331.5827 15.22340058114548
PROXIMA II              
1 43696U 18088G   20338.11211680  .00003279  00000-0  13981-3 0  9995
2 43696  85.0301 325.2786 0020185  29.7098 330.5286 15.22338513114490
FACSAT-1                
1 43721U 18096C   20338.36959634  .00005218  00000-0  19404-3 0  9999
2 43721  97.4057  50.9359 0015808 243.7700 175.5559 15.27848275112175
CENTAURI-2              
1 43722U 18096D   20337.85967422  .00005998  00000-0  21779-3 0  9990
2 43722  97.4080  50.8921 0015832 244.3815 115.5789 15.28569593112114
INNOSAT-2               
1 43738U 18096V   20338.39713056  .00009349  00000-0  30797-3 0  9993
2 43738  97.4115  54.1440 0021260 247.8809 243.4381 15.31479552112372
SIRION PATHFINDER-2     
1 43759U 18099B   20338.20923745  .00000615  00000-0  60840-4 0  9997
2 43759  97.6897  46.8384 0013966 345.3915  14.6901 14.95366822109157
CORVUS-BC 4             
1 43767U 18099K   20338.48097345  .00000317  00000-0  34293-4 0  9996
2 43767  97.6884  46.3280 0011466 350.1364   9.9631 14.94805528109154
MOVE-II                 
1 43780U 18099Y   20338.47110640  .00001567  00000-0  14608-3 0  9999
2 43780  97.6905  47.0946 0013073 356.1766   3.9353 14.95605968109172
SPACEBEE-7              
1 43816U 18099BL  20338.17817924  .00000588  00000-0  57683-4 0  9998
2 43816  97.6921  47.2993 0012823 340.7226  19.3508 14.95864162108711
SPACEBEE-5              
1 43817U 18099BM  20338.18601402  .00002302  00000-0  20642-3 0  9992
2 43817  97.6982  48.0613 0012406 338.6284  21.4418 14.96707029108740
SPACEBEE-6              
1 43818U 18099BN  20338.45147819  .00001099  00000-0  10272-3 0  9990
2 43818  97.6939  47.8005 0012661 338.8411  21.2285 14.96122927108919
SHIELDS 1               
1 43850U 18104B   20337.50913138  .00001532  00000-0  65992-4 0  9995
2 43850  85.0311  64.2307 0015333 164.2827 195.8894 15.21579402109029
STF-1                   
1 43852U 18104D   20338.50968649  .00003500  00000-0  15243-3 0  9995
2 43852  85.0351  64.2052 0014636 174.8452 185.2943 15.21734486109155
ZACUBE-2                
1 43907U 18111AH  20338.40427376  .00001710  00000-0  71390-4 0  9997
2 43907  97.2494 232.9156 0019520 267.1624 206.2320 15.24825342107754
LUME 1                  
1 43908U 18111AJ  20338.18357611  .00003421  00000-0  13722-3 0  9992
2 43908  97.2497 233.0089 0019155 266.5444  93.3603 15.25494144107743
AOBA VELOX-IV           
1 43940U 19003J   20338.10888384  .00004913  00000-0  19381-3 0  9991
2 43940  97.2068  23.4607 0022888 350.5117   9.5686 15.25763433104352
CATSAT-2                
1 44029U 98067PV  20338.01618057  .00063637  00000-0  42374-3 0  9991
2 44029  51.6358 177.3963 0000500  12.1989 347.9022 15.74785922104989
DELPHINI                
1 44030U 98067PW  20338.37817259  .00089644  00000-0  52442-3 0  9990
2 44030  51.6299 172.0872 0000753 248.3485 111.7436 15.77597719105053
UNITE                   
1 44031U 98067PX  20337.33085988  .00029177  00000-0  28482-3 0  9994
2 44031  51.6354 193.8075 0001064   2.6799 357.4202 15.65941137104678
CATSAT-1                
1 44033U 98067PZ  20338.46001558  .00046301  00000-0  30982-3 0  9998
2 44033  51.6358 175.1201 0000741  11.9328 348.1689 15.74805886104968
RAAVANA-1               
1 44329U 98067QE  20338.01868383  .00030917  00000-0  33924-3 0  9999
2 44329  51.6361 206.7435 0004299 254.6996 105.3524 15.62934850 83316
UGUISU                  
1 44330U 98067QF  20338.36258501  .00030964  00000-0  34148-3 0  9995
2 44330  51.6343 205.2450 0004343 255.4103 104.6410 15.62803648 83347
NEPALISAT-1             
1 44331U 98067QG  20337.37032567  .00032251  00000-0  35414-3 0  9996
2 44331  51.6342 209.8706 0004168 255.2079 104.8454 15.62894149 83207
SPOOQY-1                
1 44332U 98067QH  20337.90047466  .00029553  00000-0  32775-3 0  9998
2 44332  51.6350 207.4248 0003362 257.4407 102.6211 15.62689351 83244
SPACEBEE-9              
1 44370U 19037F   20338.05117252  .00029017  00000-0  55851-3 0  9993
2 44370  45.0041 251.0577 0012148 115.3830 244.8320 15.47357007 80671
SPACEBEE-8              
1 44371U 19037G   20337.87765600  .00069243  00000-0  94579-3 0  9994
2 44371  45.0038 237.9424 0011598 145.9416 214.2225 15.56557187 80811
IOD-1 GEMS              
1 44385U 98067QK  20337.86174646  .00073302  00000-0  60296-3 0  9992
2 44385  51.6353 201.2293 0003895 200.3025 159.7818 15.69729249 80848
MOVE-IIB                
1 44398U 19038N   20338.18610459  .00004076  00000-0  23417-3 0  9996
2 44398  97.5576 297.5101 0023164 267.9724  91.8855 15.12855784 78082
SONATE                  
1 44400U 19038Q   20338.47204778  .00002066  00000-0  12282-3 0  9990
2 44400  97.5623 297.7809 0023354 264.7569  95.0989 15.12191999 78118
LUCKY-7                 
1 44406U 19038W   20338.45620789  .00001992  00000-0  11761-3 0  9996
2 44406  97.5635 297.9295 0022800 263.6640  96.1993 15.12502528 78112
BEESAT 9                
1 44412U 19038AC  20338.11137945  .00003107  00000-0  18052-3 0  9993
2 44412  97.5621 297.5753 0020817 271.0515  88.8330 15.12675668 77768
JAISAT-1                
1 44419U 19038F   20337.61486507  .00002646  00000-0  15239-3 0  9996
2 44419  97.5623 297.4760 0019638 271.5625  88.3356 15.13157721 78029
SWIATOWID               
1 44426U 98067QL  20338.24083513  .00120661  00000-0  87165-3 0  9998
2 44426  51.6361 196.7334 0003792 210.3467 257.2707 15.72614348 80943
KRAKSAT                 
1 44427U 98067QM  20338.50197865  .00025598  00000-0  32164-3 0  9996
2 44427  51.6412 210.6397 0003267 203.9350 221.6111 15.59513711 80820
VCC A                   
1 44428U 98067QN  20337.38674563  .00030893  00000-0  35184-3 0  9996
2 44428  51.6377 212.3263 0002618 204.6378 155.4491 15.61980858 80704
ENTRYSAT                
1 44429U 98067QP  20338.03510031  .00040427  00000-0  41929-3 0  9997
2 44429  51.6344 206.0975 0002948 198.1653 161.9237 15.64245019 80849
VCC C                   
1 44430U 98067QQ  20338.07174073  .00057541  00000-0  52398-3 0  9992
2 44430  51.6339 202.5931 0002896 199.0804 161.0084 15.67347875 79719
VCC B                   
1 44431U 98067QR  20337.37882517  .00031747  00000-0  35951-3 0  9990
2 44431  51.6358 212.2338 0002729 205.1068 154.9793 15.62113258 80649
DUCHIFAT-3              
1 44854U 19089C   20338.27248381  .00001091  00000-0  94204-4 0  9997
2 44854  36.9658 180.5699 0009461 343.3747  16.6686 14.99230238 53645
EYESAT-NANO             
1 44877U 19092E   20338.46645718  .00003500  00000-0  17876-3 0  9998
2 44877  97.4545 159.0397 0014245 146.4839 213.7299 15.17266931 53216
ORBITAL FACTORY 2 (OF-2)
1 45113U 19071C   20337.53260113  .00006116  00000-0  19252-3 0  9994
2 45113  51.6428 271.2022 0011924 305.4019  54.5849 15.34244612 46925
M2 PATHFINDER           
1 45727U 20037E   20337.76050299  .00000048  00000-0  10376-4 0  9993
2 45727  97.7023 153.9789 0014076 100.1740 260.1083 14.91268442 23105
NETSAT-4                
1 46504U 20068U   20337.37403016  .00001709  00000-0  13535-3 0  9991
2 46504  97.6698 270.1054 0011363  45.1804 315.0342 15.01879612  9659
NETSAT-3                
1 46505U 20068V   20337.84208420  .00001627  00000-0  12918-3 0  9999
2 46505  97.6666 270.5582 0011056  45.5084 314.7036 15.01837428  9732
NETSAT-1                
1 46506U 20068W   20337.84392933  .00001553  00000-0  12365-3 0  9997
2 46506  97.6668 270.5560 0010996  45.6913 314.5221 15.01792463  9738
NETSAT-2                
1 46507U 20068X   20337.84456787  .00001467  00000-0  11714-3 0  9997
2 46507  97.6666 270.5570 0011288  45.6637 314.5536 15.01773592  9681
SPOC                    
1 46921U 98067RR  20337.81146815  .00013314  00000-0  23496-3 0  9990
2 46921  51.6425 233.8670 0003009  78.9454 281.1873 15.50707297  4316
BOBCAT-1                
1 46922U 98067RS  20337.81058262  .00018254  00000-0  31715-3 0  9990
2 46922  51.6426 233.8615 0002837  85.0019 275.1294 15.50875294  4279
